{
  "type": "FeatureCollection",
  "features": [
    {
      "type": "Feature",
      "properties": {
        "norad_id": 40362,
        "name": "YAOGAN-26",
        "group": "resource",
        "lat": -55.55959408454551,
        "lon": 154.33450499377255,
        "alt_km": 460.1389967535042,
        "timestamp": "2025-12-09T23:33:23.506409+00:00",
        "meta_object_name": "YAOGAN-26",
        "meta_object_id": "2014-088A",
        "meta_epoch": "2025-12-09T14:43:54.844608",
        "meta_mean_motion": 15.39110633,
        "meta_eccentricity": 0.00066979,
        "meta_inclination": 97.0645,
        "meta_ra_of_asc_node": 344.399,
        "meta_arg_of_pericenter": 38.1762,
        "meta_mean_anomaly": 321.9958,
        "meta_ephemeris_type": 0,
        "meta_classification_type": "U",
        "meta_norad_cat_id": 40362,
        "meta_element_set_no": 999,
        "meta_rev_at_epoch": 60846,
        "meta_bstar": 0.00027423163,
        "meta_mean_motion_dot": 0.00010559,
        "meta_mean_motion_ddot": 0,
        "tle_line1": "1 40362U 14088A   25343.61382922  .00010559  00000+0  27423-3 0  9996",
        "tle_line2": "2 40362  97.0645 344.3990 0006697  38.1762 321.9958 15.39110633608468"
      },
      "geometry": {
        "type": "Point",
        "coordinates": [
          154.33450499377255,
          -55.55959408454551
        ]
      }
    },
    {
      "type": "Feature",
      "properties": {
        "norad_id": 40376,
        "name": "SMAP",
        "group": "resource",
        "lat": 22.53127540304567,
        "lon": 172.14448813856612,
        "alt_km": 681.77995085157,
        "timestamp": "2025-12-09T23:33:23.506420+00:00",
        "meta_object_name": "SMAP",
        "meta_object_id": "2015-003A",
        "meta_epoch": "2025-12-09T14:38:08.346912",
        "meta_mean_motion": 14.63339226,
        "meta_eccentricity": 0.00012066,
        "meta_inclination": 98.1291,
        "meta_ra_of_asc_node": 348.3787,
        "meta_arg_of_pericenter": 88.7618,
        "meta_mean_anomaly": 271.3722,
        "meta_ephemeris_type": 0,
        "meta_classification_type": "U",
        "meta_norad_cat_id": 40376,
        "meta_element_set_no": 999,
        "meta_rev_at_epoch": 57989,
        "meta_bstar": 0.00020517611,
        "meta_mean_motion_dot": 1.013e-05,
        "meta_mean_motion_ddot": 0,
        "tle_line1": "1 40376U 15003A   25343.60981883  .00001013  00000+0  20518-3 0  9992",
        "tle_line2": "2 40376  98.1291 348.3787 0001206  88.7618 271.3722 14.63339226579890"
      },
      "geometry": {
        "type": "Point",
        "coordinates": [
          172.14448813856612,
          22.53127540304567
        ]
      }
    },
    {
      "type": "Feature",
      "properties": {
        "norad_id": 40536,
        "name": "KOMPSAT-3A",
        "group": "resource",
        "lat": 48.81598956140498,
        "lon": 147.04726109167618,
        "alt_km": 427.48893036009304,
        "timestamp": "2025-12-09T23:33:23.506430+00:00",
        "meta_object_name": "KOMPSAT-3A",
        "meta_object_id": "2015-014A",
        "meta_epoch": "2025-12-09T15:12:54.239040",
        "meta_mean_motion": 15.43766452,
        "meta_eccentricity": 0.00045769,
        "meta_inclination": 97.6792,
        "meta_ra_of_asc_node": 317.8091,
        "meta_arg_of_pericenter": 133.1214,
        "meta_mean_anomaly": 227.0416,
        "meta_ephemeris_type": 0,
        "meta_classification_type": "U",
        "meta_norad_cat_id": 40536,
        "meta_element_set_no": 999,
        "meta_rev_at_epoch": 59247,
        "meta_bstar": 0.00058762101,
        "meta_mean_motion_dot": 0.00026545,
        "meta_mean_motion_ddot": 0,
        "tle_line1": "1 40536U 15014A   25343.63396110  .00026545  00000+0  58762-3 0  9997",
        "tle_line2": "2 40536  97.6792 317.8091 0004576 133.1214 227.0416 15.43766452592478"
      },
      "geometry": {
        "type": "Point",
        "coordinates": [
          147.04726109167618,
          48.81598956140498
        ]
      }
    },
    {
      "type": "Feature",
      "properties": {
        "norad_id": 40697,
        "name": "SENTINEL-2A",
        "group": "resource",
        "lat": -12.102568808603483,
        "lon": 58.40617717589942,
        "alt_km": 793.4761593373969,
        "timestamp": "2025-12-09T23:33:23.506441+00:00",
        "meta_object_name": "SENTINEL-2A",
        "meta_object_id": "2015-028A",
        "meta_epoch": "2025-12-09T15:13:19.337376",
        "meta_mean_motion": 14.30825461,
        "meta_eccentricity": 0.00010588,
        "meta_inclination": 98.5692,
        "meta_ra_of_asc_node": 56.2111,
        "meta_arg_of_pericenter": 89.2494,
        "meta_mean_anomaly": 270.881,
        "meta_ephemeris_type": 0,
        "meta_classification_type": "U",
        "meta_norad_cat_id": 40697,
        "meta_element_set_no": 999,
        "meta_rev_at_epoch": 54662,
        "meta_bstar": 0.00010724625,
        "meta_mean_motion_dot": 2.38e-06,
        "meta_mean_motion_ddot": 0,
        "tle_line1": "1 40697U 15028A   25343.63425159  .00000238  00000+0  10725-3 0  9994",
        "tle_line2": "2 40697  98.5692  56.2111 0001058  89.2494 270.8810 14.30825461546626"
      },
      "geometry": {
        "type": "Point",
        "coordinates": [
          58.40617717589942,
          -12.102568808603483
        ]
      }
    },
    {
      "type": "Feature",
      "properties": {
        "norad_id": 40701,
        "name": "GAOFEN-8",
        "group": "resource",
        "lat": 46.60929687385011,
        "lon": 153.7686966943823,
        "alt_km": 448.15439890128255,
        "timestamp": "2025-12-09T23:33:23.506451+00:00",
        "meta_object_name": "GAOFEN-8",
        "meta_object_id": "2015-030A",
        "meta_epoch": "2025-12-09T15:32:47.899968",
        "meta_mean_motion": 15.38395005,
        "meta_eccentricity": 0.00114661,
        "meta_inclination": 97.691,
        "meta_ra_of_asc_node": 161.6377,
        "meta_arg_of_pericenter": 148.7021,
        "meta_mean_anomaly": 211.4908,
        "meta_ephemeris_type": 0,
        "meta_classification_type": "U",
        "meta_norad_cat_id": 40701,
        "meta_element_set_no": 999,
        "meta_rev_at_epoch": 58223,
        "meta_bstar": 0.00082901982,
        "meta_mean_motion_dot": 0.0003146,
        "meta_mean_motion_ddot": 0,
        "tle_line1": "1 40701U 15030A   25343.64777662  .00031460  00000+0  82902-3 0  9990",
        "tle_line2": "2 40701  97.6910 161.6377 0011466 148.7021 211.4908 15.38395005582232"
      },
      "geometry": {
        "type": "Point",
        "coordinates": [
          153.7686966943823,
          46.60929687385011
        ]
      }
    },
    {
      "type": "Feature",
      "properties": {
        "norad_id": 40718,
        "name": "CARBONITE 1 (CBNT-1)",
        "group": "resource",
        "lat": 8.415578031877134,
        "lon": -13.714786865467868,
        "alt_km": 613.1824136760742,
        "timestamp": "2025-12-09T23:33:23.506461+00:00",
        "meta_object_name": "CARBONITE 1 (CBNT-1)",
        "meta_object_id": "2015-032D",
        "meta_epoch": "2025-12-09T14:41:14.672832",
        "meta_mean_motion": 14.82720542,
        "meta_eccentricity": 0.00142308,
        "meta_inclination": 97.6406,
        "meta_ra_of_asc_node": 164.7941,
        "meta_arg_of_pericenter": 191.3934,
        "meta_mean_anomaly": 168.696,
        "meta_ephemeris_type": 0,
        "meta_classification_type": "U",
        "meta_norad_cat_id": 40718,
        "meta_element_set_no": 999,
        "meta_rev_at_epoch": 56124,
        "meta_bstar": 0.000327303,
        "meta_mean_motion_dot": 2.596e-05,
        "meta_mean_motion_ddot": 0,
        "tle_line1": "1 40718U 15032D   25343.61197538  .00002596  00000+0  32730-3 0  9997",
        "tle_line2": "2 40718  97.6406 164.7941 0014230 191.3934 168.6960 14.82720542561245"
      },
      "geometry": {
        "type": "Point",
        "coordinates": [
          -13.714786865467868,
          8.415578031877134
        ]
      }
    },
    {
      "type": "Feature",
      "properties": {
        "norad_id": 40878,
        "name": "YAOGAN-27",
        "group": "resource",
        "lat": 77.17121309610411,
        "lon": -77.78360060929481,
        "alt_km": 1197.4407291634825,
        "timestamp": "2025-12-09T23:33:23.506472+00:00",
        "meta_object_name": "YAOGAN-27",
        "meta_object_id": "2015-040A",
        "meta_epoch": "2025-12-09T14:01:06.269376",
        "meta_mean_motion": 13.16058881,
        "meta_eccentricity": 0.00076895,
        "meta_inclination": 100.1006,
        "meta_ra_of_asc_node": 333.3462,
        "meta_arg_of_pericenter": 294.6844,
        "meta_mean_anomaly": 65.3469,
        "meta_ephemeris_type": 0,
        "meta_classification_type": "U",
        "meta_norad_cat_id": 40878,
        "meta_element_set_no": 999,
        "meta_rev_at_epoch": 49272,
        "meta_bstar": -0.00010906544,
        "meta_mean_motion_dot": -8.4e-07,
        "meta_mean_motion_ddot": 0,
        "tle_line1": "1 40878U 15040A   25343.58410034 -.00000084  00000+0 -10907-3 0  9992",
        "tle_line2": "2 40878 100.1006 333.3462 0007689 294.6844  65.3469 13.16058881492726"
      },
      "geometry": {
        "type": "Point",
        "coordinates": [
          -77.78360060929481,
          77.17121309610411
        ]
      }
    }
  ]
}